ORBCOMM FM05            
1 25117U 97084F   24283.96487858  .00006276  00000+0  18603-2 0  9998
2 25117  45.0133 127.8946 0002038  68.7028 291.4040 14.43965446405358
ORBCOMM FM06            
1 25118U 97084G   24283.94342697  .00006861  00000+0  20240-2 0  9998
2 25118  45.0124 128.0504 0001543  96.2074  54.7408 14.44095132405343
ORBCOMM FM07            
1 25119U 97084H   24284.53875258  .00006548  00000+0  19376-2 0  9999
2 25119  45.0125 125.8475 0002487  55.1385 304.9699 14.43997021405422
ORBCOMM FM03            
1 25158U 98007B   24284.44532980  .00005130  00000+0  18907-2 0  9995
2 25158 107.9700 343.0083 0047465 322.7565  37.0286 14.33074946388381
ORBCOMM FM04            
1 25159U 98007C   24284.12612234  .00004527  00000+0  16691-2 0  9999
2 25159 107.9681 345.3984 0043129 320.6309  39.1699 14.33338938388487
ORBCOMM FM17            
1 25413U 98046A   24284.46968533  .00004800  00000+0  17558-2 0  9995
2 25413  44.9957 355.2333 0001096 327.0963  32.9815 14.33919108367480
ORBCOMM FM18            
1 25414U 98046B   24284.36628009  .00006502  00000+0  22210-2 0  9998
2 25414  44.9928 279.4325 0002217  84.7388 275.3712 14.36946655368469
ORBCOMM FM19            
1 25415U 98046C   24284.44427044  .00005785  00000+0  19884-2 0  9999
2 25415  44.9936 280.6834 0001406  51.3255  75.6871 14.36775678368462
